OSCAR 7 (AO-7)          
1 07530U 74089B   26160.31226999 -.00000035  00000+0  69227-4 0  9997
2 07530 101.9901 173.4766 0012488 144.7701 229.1729 12.53697932359533
PHASE 3B (AO-10)        
1 14129U 83058B   26158.17238870 -.00000194  00000+0  00000+0 0  9992
2 14129  25.9048 221.2242 6014266 112.9115 319.2048  2.05872980295281
UOSAT 2 (UO-11)         
1 14781U 84021B   26160.43538020  .00001122  00000+0  11981-3 0  9994
2 14781  97.8054 126.0969 0006913 198.6022 161.4945 14.90763984255975
LUSAT (LO-19)           
1 20442U 90005G   26160.50739886  .00000107  00000+0  54932-4 0  9991
2 20442  98.8852 182.1012 0010721 224.9384 135.0932 14.34120851901295
EYESAT A (AO-27)        
1 22825U 93061C   26160.44809160  .00000080  00000+0  47247-4 0  9990
2 22825  98.6881 227.8641 0009416 119.8201 240.3919 14.30940206705899
ITAMSAT (IO-26)         
1 22826U 93061D   26160.42981208  .00000081  00000+0  47221-4 0  9996
2 22826  98.6830 227.7625 0010031 105.1057 255.1236 14.31366839706204
RADIO ROSTO (RS15)      
1 23439U 94085A   26160.48871985 -.00000037  00000+0  14709-3 0  9996
2 23439  64.8186 315.6669 0155713   5.3005 354.9525 11.27583629295033
JAS-2 (FO-29)           
1 24278U 96046B   26160.54794969 -.00000003  00000+0  29285-4 0  9999
2 24278  98.5247  10.4666 0350783 116.2031 247.5618 13.53273773472134
TECHSAT 1B (GO-32)      
1 25397U 98043D   26160.47814272  .00000062  00000+0  47013-4 0  9996
2 25397  99.0065 153.0425 0000612 183.0488 177.0687 14.24426925450237
ISS (ZARYA)             
1 25544U 98067A   26160.51346515  .00007341  00000+0  13794-3 0  9996
2 25544  51.6332 338.0748 0006877 150.8507 209.2867 15.49683556570568
PCSAT (NO-44)           
1 26931U 01043C   26160.54616119  .00000088  00000+0  63924-4 0  9990
2 26931  67.0511 264.0346 0006106 264.2446  95.7959 14.31953409289359
SAUDISAT 1C (SO-50)     
1 27607U 02058C   26160.33310560  .00000929  00000+0  12688-3 0  9990
2 27607  64.5504 153.2855 0075433 263.9300  95.3207 14.83029515263298
CUTE-1 (CO-55)          
1 27844U 03031E   26160.52062595  .00000275  00000+0  13789-3 0  9995
2 27844  98.6735 169.1759 0009021 200.7824 159.2990 14.24331052190581
CUBESAT XI-IV (CO-57)   
1 27848U 03031J   26160.01325554  .00000222  00000+0  11652-3 0  9999
2 27848  98.6766 168.3941 0008561 222.5153 137.5363 14.23616414190218
MOZHAETS 4 (RS22)       
1 27939U 03042A   26160.61180500  .00000462  00000+0  79517-4 0  9999
2 27939  98.3474 344.7569 0010158 296.8131 152.9400 14.73452857214431
CUBESAT XI-V            
1 28895U 05043F   26160.38487946  .00001300  00000+0  21228-3 0  9999
2 28895  98.2976 315.8433 0013165 226.6554 133.3557 14.72610450100602
CUTE-1.7+APD II (CO-65) 
1 32785U 08021C   26160.55888833  .00005244  00000+0  33207-3 0  9991
2 32785  97.8272 141.8191 0010343  61.2835 298.9432 15.09380243984040
SEEDS II (CO-66)        
1 32791U 08021J   26160.23552937  .00016060  00000+0  51422-3 0  9993
2 32791  97.7519 157.7552 0002294  29.0945 331.0423 15.32477826986071
YUBILEINY (RS30)        
1 32953U 08025A   26160.61400412  .00000056  00000+0  33418-3 0  9992
2 32953  82.5049   0.1521 0019190 330.9888  29.0124 12.43179037818754
KKS-1 (KISEKI)          
1 33499U 09002H   26160.56540915  .00001291  00000+0  16530-3 0  9999
2 33499  98.1192  82.8870 0006987 324.5860  35.4888 14.83104573935066
SWISSCUBE               
1 35932U 09051B   26160.23220341  .00000884  00000+0  18430-3 0  9997
2 35932  98.4042  67.9819 0005536 231.7827 128.2876 14.62466323887992
BEESAT-1                
1 35933U 09051C   26160.51132019  .00000778  00000+0  16607-3 0  9999
2 35933  98.3972  67.9173 0003918 247.5852 112.4933 14.61708260888068
ITUPSAT1                
1 35935U 09051E   26160.49549254  .00000698  00000+0  15408-3 0  9990
2 35935  98.4055  67.1012 0006085 262.7226  97.3282 14.60429234887617
XIWANG-1 (HOPE-1)       
1 36122U 09072B   26160.56797148 -.00000405  00000+0 -94358-3 0  9996
2 36122 100.4023 114.5218 0006811 250.9033 109.1343 13.16437400792004
O/OREOS (USA 219)       
1 37224U 10062C   26160.22668022  .00002113  00000+0  20525-3 0  9993
2 37224  71.9704  98.3700 0012386  80.4823 279.7746 14.93710062115451
JUGNU                   
1 37839U 11058B   26160.26883713  .00000405  00000+0  72297-4 0  9997
2 37839  19.9621 356.5333 0018550 349.0526 166.6651 14.13774628757908
SRMSAT                  
1 37841U 11058D   26160.53493752  .00000362  00000+0  52397-4 0  9991
2 37841  19.9710 105.7844 0011936 119.8301  40.8059 14.11573956756730
STRAND-1                
1 39090U 13009E   26160.46722360  .00000269  00000+0  10495-3 0  9997
2 39090  98.3920 340.8917 0007447 251.7125 108.3252 14.37158714695957
ZACUBE-1 (TSHEPISOSAT)  
1 39417U 13066B   26160.47518227  .00003043  00000+0  23849-3 0  9999
2 39417  97.8090 122.7702 0040069 274.7996  84.8653 15.01140367679579
GOMX-1                  
1 39430U 13066Q   26160.62751692  .00001871  00000+0  28490-3 0  9990
2 39430  97.6494   1.5673 0130146 101.5421 260.0431 14.69431873668801
