OBJECT_NAME,OBJECT_ID,EPOCH,MEAN_MOTION,ECCENTRICITY,INCLINATION,RA_OF_ASC_NODE,ARG_OF_PERICENTER,MEAN_ANOMALY,EPHEMERIS_TYPE,CLASSIFICATION_TYPE,NORAD_CAT_ID,ELEMENT_SET_NO,REV_AT_EPOCH,BSTAR,MEAN_MOTION_DOT,MEAN_MOTION_DDOT
OSCAR 7 (AO-7),1974-089B,2026-06-09T07:29:40.127136,12.53697932,.0012488,101.9901,173.4766,144.7701,229.1729,0,U,7530,999,35953,.69227E-4,-.35E-6,0
PHASE 3B (AO-10),1983-058B,2026-06-07T04:08:14.383680,2.05872980,.60142661,25.9048,221.2242,112.9115,319.2048,0,U,14129,999,29528,0,-.194E-5,0
UOSAT 2 (UO-11),1984-021B,2026-06-09T10:26:56.849280,14.90763984,.00069133,97.8054,126.0969,198.6022,161.4945,0,U,14781,999,25597,.11980952E-3,.1122E-4,0
LUSAT (LO-19),1990-005G,2026-06-09T12:10:39.261504,14.34120851,.0010721,98.8852,182.1012,224.9384,135.0932,0,U,20442,999,90129,.54931652E-4,.107E-5,0
EYESAT A (AO-27),1993-061C,2026-06-09T10:45:15.114240,14.30940206,.00094167,98.6881,227.8641,119.8201,240.3919,0,U,22825,999,70589,.47246911E-4,.8E-6,0
ITAMSAT (IO-26),1993-061D,2026-06-09T10:18:55.763712,14.31366839,.00100318,98.6830,227.7625,105.1057,255.1236,0,U,22826,999,70620,.47220704E-4,.81E-6,0
RADIO ROSTO (RS15),1994-085A,2026-06-09T11:43:45.395040,11.27583629,.0155713,64.8186,315.6669,5.3005,354.9525,0,U,23439,999,29503,.14708881E-3,-.37E-6,0
JAS-2 (FO-29),1996-046B,2026-06-09T13:09:02.853216,13.53273773,.03507836,98.5247,10.4666,116.2031,247.5618,0,U,24278,999,47213,.29285361E-4,-.3E-7,0
TECHSAT 1B (GO-32),1998-043D,2026-06-09T11:28:31.531008,14.24426925,.00006129,99.0065,153.0425,183.0488,177.0687,0,U,25397,999,45023,.47012946E-4,.62E-6,0
ISS (ZARYA),1998-067A,2026-06-09T12:19:23.388960,15.49683556,.0006877,51.6332,338.0748,150.8507,209.2867,0,U,25544,999,57056,.13793845E-3,.7341E-4,0
PCSAT (NO-44),2001-043C,2026-06-09T13:06:28.326816,14.31953409,.00061067,67.0511,264.0346,264.2446,95.7959,0,U,26931,999,28935,.63924447E-4,.88E-6,0
SAUDISAT 1C (SO-50),2002-058C,2026-06-09T07:59:40.323840,14.83029515,.00754337,64.5504,153.2855,263.9300,95.3207,0,U,27607,999,26329,.12687505E-3,.929E-5,0
CUTE-1 (CO-55),2003-031E,2026-06-09T12:29:42.082080,14.24331052,.00090212,98.6735,169.1759,200.7824,159.2990,0,U,27844,999,19058,.13789417E-3,.275E-5,0
CUBESAT XI-IV (CO-57),2003-031J,2026-06-09T00:19:05.278656,14.23616414,.00085614,98.6766,168.3941,222.5153,137.5363,0,U,27848,999,19021,.11651716E-3,.222E-5,0
MOZHAETS 4 (RS22),2003-042A,2026-06-09T14:40:59.952000,14.73452857,.00101581,98.3474,344.7569,296.8131,152.9400,0,U,27939,999,21443,.79517092E-4,.462E-5,0
CUBESAT XI-V,2005-043F,2026-06-09T09:14:13.585344,14.72610450,.00131651,98.2976,315.8433,226.6554,133.3557,0,U,28895,999,10060,.21228388E-3,.13E-4,0
CUTE-1.7+APD II (CO-65),2008-021C,2026-06-09T13:24:47.951712,15.09380243,.00103434,97.8272,141.8191,61.2835,298.9432,0,U,32785,999,98404,.33206845E-3,.5244E-4,0
SEEDS II (CO-66),2008-021J,2026-06-09T05:39:09.737568,15.32477826,.0002294,97.7519,157.7552,29.0945,331.0423,0,U,32791,999,98607,.51422E-3,.1606E-3,0
YUBILEINY (RS30),2008-025A,2026-06-09T14:44:09.955968,12.43179037,.00191908,82.5049,0.1521,330.9888,29.0124,0,U,32953,999,81875,.33418331E-3,.56E-6,0
KKS-1 (KISEKI),2009-002H,2026-06-09T13:34:11.350560,14.83104573,.00069877,98.1192,82.8870,324.5860,35.4888,0,U,33499,999,93506,.1653046E-3,.1291E-4,0
SWISSCUBE,2009-051B,2026-06-09T05:34:22.374624,14.62466323,.0005536,98.4042,67.9819,231.7827,128.2876,0,U,35932,999,88799,.1843E-3,.884E-5,0
BEESAT-1,2009-051C,2026-06-09T12:16:18.064416,14.61708260,.00039183,98.3972,67.9173,247.5852,112.4933,0,U,35933,999,88806,.16607004E-3,.778E-5,0
ITUPSAT1,2009-051E,2026-06-09T11:53:30.555456,14.60429234,.00060856,98.4055,67.1012,262.7226,97.3282,0,U,35935,999,88761,.15407585E-3,.698E-5,0
XIWANG-1 (HOPE-1),2009-072B,2026-06-09T13:37:52.735872,13.16437400,.00068117,100.4023,114.5218,250.9033,109.1343,0,U,36122,999,79200,-.94357797E-3,-.405E-5,0
O/OREOS (USA 219),2010-062C,2026-06-09T05:26:25.171008,14.93710062,.0012386,71.9704,98.3700,80.4823,279.7746,0,U,37224,999,11545,.20525E-3,.2113E-4,0
JUGNU,2011-058B,2026-06-09T06:27:07.528032,14.13774628,.001855,19.9621,356.5333,349.0526,166.6651,0,U,37839,999,75790,.72297E-4,.405E-5,0
SRMSAT,2011-058D,2026-06-09T12:50:18.601728,14.11573956,.00119361,19.9710,105.7844,119.8301,40.8059,0,U,37841,999,75673,.52396644E-4,.362E-5,0
STRAND-1,2013-009E,2026-06-09T11:12:48.119040,14.37158714,.0007447,98.3920,340.8917,251.7125,108.3252,0,U,39090,999,69595,.10495278E-3,.269E-5,0
ZACUBE-1 (TSHEPISOSAT),2013-066B,2026-06-09T11:24:15.748128,15.01140367,.00400693,97.8090,122.7702,274.7996,84.8653,0,U,39417,999,67957,.23849308E-3,.3043E-4,0
GOMX-1,2013-066Q,2026-06-09T15:03:37.461888,14.69431873,.01301463,97.6494,1.5673,101.5421,260.0431,0,U,39430,999,66880,.28490118E-3,.1871E-4,0
